{
  "type": "FeatureCollection",
  "features": [
    {
      "type": "Feature",
      "properties": {
        "norad_id": 66618,
        "name": "STARLINK-35970",
        "group": "last-30-days",
        "lat": -27.990773313293985,
        "lon": 37.96712258084907,
        "alt_km": 401.8175836286664,
        "timestamp": "2025-12-11T05:00:25.075917+00:00",
        "meta_object_name": "STARLINK-35970",
        "meta_object_id": "2025-271B",
        "meta_epoch": "2025-12-10T22:00:03.000096",
        "meta_mean_motion": 15.5788902,
        "meta_eccentricity": 9.39e-05,
        "meta_inclination": 53.1599,
        "meta_ra_of_asc_node": 195.8967,
        "meta_arg_of_pericenter": 88.9955,
        "meta_mean_anomaly": 289.3625,
        "meta_ephemeris_type": 0,
        "meta_classification_type": "U",
        "meta_norad_cat_id": 66618,
        "meta_element_set_no": 999,
        "meta_rev_at_epoch": 395,
        "meta_bstar": -0.030305612,
        "meta_mean_motion_dot": -0.02055952,
        "meta_mean_motion_ddot": 0,
        "tle_line1": "1 66618U 25271B   25344.91670139 -.02055952  00000+0 -30306-1 0  9990",
        "tle_line2": "2 66618  53.1599 195.8967 0000939  88.9955 289.3625 15.57889020  3958"
      },
      "geometry": {
        "type": "Point",
        "coordinates": [
          37.96712258084907,
          -27.990773313293985
        ]
      }
    },
    {
      "type": "Feature",
      "properties": {
        "norad_id": 66619,
        "name": "STARLINK-35951",
        "group": "last-30-days",
        "lat": 7.7694720334319705,
        "lon": 8.708083897037406,
        "alt_km": 397.21669806627324,
        "timestamp": "2025-12-11T05:00:25.075927+00:00",
        "meta_object_name": "STARLINK-35951",
        "meta_object_id": "2025-271C",
        "meta_epoch": "2025-12-10T22:00:03.000096",
        "meta_mean_motion": 15.57893985,
        "meta_eccentricity": 8.496e-05,
        "meta_inclination": 53.1603,
        "meta_ra_of_asc_node": 195.9921,
        "meta_arg_of_pericenter": 93.1103,
        "meta_mean_anomaly": 239.5897,
        "meta_ephemeris_type": 0,
        "meta_classification_type": "U",
        "meta_norad_cat_id": 66619,
        "meta_element_set_no": 999,
        "meta_rev_at_epoch": 395,
        "meta_bstar": -0.03045195,
        "meta_mean_motion_dot": -0.02065105,
        "meta_mean_motion_ddot": 0,
        "tle_line1": "1 66619U 25271C   25344.91670139 -.02065105  00000+0 -30452-1 0  9994",
        "tle_line2": "2 66619  53.1603 195.9921 0000849  93.1103 239.5897 15.57893985  3952"
      },
      "geometry": {
        "type": "Point",
        "coordinates": [
          8.708083897037406,
          7.7694720334319705
        ]
      }
    },
    {
      "type": "Feature",
      "properties": {
        "norad_id": 66620,
        "name": "STARLINK-35936",
        "group": "last-30-days",
        "lat": 12.331313041271978,
        "lon": 5.159307136171512,
        "alt_km": 396.5575946305098,
        "timestamp": "2025-12-11T05:00:25.075937+00:00",
        "meta_object_name": "STARLINK-35936",
        "meta_object_id": "2025-271D",
        "meta_epoch": "2025-12-10T22:00:03.000096",
        "meta_mean_motion": 15.57889245,
        "meta_eccentricity": 8.385e-05,
        "meta_inclination": 53.1602,
        "meta_ra_of_asc_node": 196.0052,
        "meta_arg_of_pericenter": 86.4123,
        "meta_mean_anomaly": 240.5397,
        "meta_ephemeris_type": 0,
        "meta_classification_type": "U",
        "meta_norad_cat_id": 66620,
        "meta_element_set_no": 999,
        "meta_rev_at_epoch": 395,
        "meta_bstar": -0.030347656,
        "meta_mean_motion_dot": -0.02058453,
        "meta_mean_motion_ddot": 0,
        "tle_line1": "1 66620U 25271D   25344.91670139 -.02058453  00000+0 -30348-1 0  9998",
        "tle_line2": "2 66620  53.1602 196.0052 0000838  86.4123 240.5397 15.57889245  3956"
      },
      "geometry": {
        "type": "Point",
        "coordinates": [
          5.159307136171512,
          12.331313041271978
        ]
      }
    },
    {
      "type": "Feature",
      "properties": {
        "norad_id": 66621,
        "name": "STARLINK-35847",
        "group": "last-30-days",
        "lat": -30.5579316509003,
        "lon": 40.7485472174533,
        "alt_km": 401.97680530266734,
        "timestamp": "2025-12-11T05:00:25.075946+00:00",
        "meta_object_name": "STARLINK-35847",
        "meta_object_id": "2025-271E",
        "meta_epoch": "2025-12-10T22:00:03.000096",
        "meta_mean_motion": 15.57888228,
        "meta_eccentricity": 0.00010877,
        "meta_inclination": 53.1601,
        "meta_ra_of_asc_node": 195.8889,
        "meta_arg_of_pericenter": 85.4843,
        "meta_mean_anomaly": 296.4132,
        "meta_ephemeris_type": 0,
        "meta_classification_type": "U",
        "meta_norad_cat_id": 66621,
        "meta_element_set_no": 999,
        "meta_rev_at_epoch": 395,
        "meta_bstar": -0.030333521,
        "meta_mean_motion_dot": -0.0205768,
        "meta_mean_motion_ddot": 0,
        "tle_line1": "1 66621U 25271E   25344.91670139 -.02057680  00000+0 -30334-1 0  9995",
        "tle_line2": "2 66621  53.1601 195.8889 0001087  85.4843 296.4132 15.57888228  3953"
      },
      "geometry": {
        "type": "Point",
        "coordinates": [
          40.7485472174533,
          -30.5579316509003
        ]
      }
    },
    {
      "type": "Feature",
      "properties": {
        "norad_id": 66622,
        "name": "STARLINK-35950",
        "group": "last-30-days",
        "lat": 6.241121100260463,
        "lon": 9.873339542237646,
        "alt_km": 397.5574170552036,
        "timestamp": "2025-12-11T05:00:25.075956+00:00",
        "meta_object_name": "STARLINK-35950",
        "meta_object_id": "2025-271F",
        "meta_epoch": "2025-12-10T22:00:03.000096",
        "meta_mean_motion": 15.57890787,
        "meta_eccentricity": 8.32e-05,
        "meta_inclination": 53.1601,
        "meta_ra_of_asc_node": 195.9892,
        "meta_arg_of_pericenter": 86.9515,
        "meta_mean_anomaly": 247.6678,
        "meta_ephemeris_type": 0,
        "meta_classification_type": "U",
        "meta_norad_cat_id": 66622,
        "meta_element_set_no": 999,
        "meta_rev_at_epoch": 395,
        "meta_bstar": -0.030400444,
        "meta_mean_motion_dot": -0.02061753,
        "meta_mean_motion_ddot": 0,
        "tle_line1": "1 66622U 25271F   25344.91670139 -.02061753  00000+0 -30400-1 0  9996",
        "tle_line2": "2 66622  53.1601 195.9892 0000832  86.9515 247.6678 15.57890787  3954"
      },
      "geometry": {
        "type": "Point",
        "coordinates": [
          9.873339542237646,
          6.241121100260463
        ]
      }
    },
    {
      "type": "Feature",
      "properties": {
        "norad_id": 66623,
        "name": "STARLINK-35920",
        "group": "last-30-days",
        "lat": 3.1782967598485157,
        "lon": 12.181452954220937,
        "alt_km": 397.9413195586685,
        "timestamp": "2025-12-11T05:00:25.075966+00:00",
        "meta_object_name": "STARLINK-35920",
        "meta_object_id": "2025-271G",
        "meta_epoch": "2025-12-10T22:00:03.000096",
        "meta_mean_motion": 15.57892543,
        "meta_eccentricity": 8.522e-05,
        "meta_inclination": 53.1602,
        "meta_ra_of_asc_node": 195.9803,
        "meta_arg_of_pericenter": 93.6863,
        "meta_mean_anomaly": 244.7667,
        "meta_ephemeris_type": 0,
        "meta_classification_type": "U",
        "meta_norad_cat_id": 66623,
        "meta_element_set_no": 999,
        "meta_rev_at_epoch": 395,
        "meta_bstar": -0.030454972,
        "meta_mean_motion_dot": -0.02065189,
        "meta_mean_motion_ddot": 0,
        "tle_line1": "1 66623U 25271G   25344.91670139 -.02065189  00000+0 -30455-1 0  9994",
        "tle_line2": "2 66623  53.1602 195.9803 0000852  93.6863 244.7667 15.57892543  3959"
      },
      "geometry": {
        "type": "Point",
        "coordinates": [
          12.181452954220937,
          3.1782967598485157
        ]
      }
    },
    {
      "type": "Feature",
      "properties": {
        "norad_id": 66624,
        "name": "STARLINK-35927",
        "group": "last-30-days",
        "lat": 4.710350969374651,
        "lon": 11.03062661553825,
        "alt_km": 397.78820957182415,
        "timestamp": "2025-12-11T05:00:25.075982+00:00",
        "meta_object_name": "STARLINK-35927",
        "meta_object_id": "2025-271H",
        "meta_epoch": "2025-12-10T22:00:03.000096",
        "meta_mean_motion": 15.57895425,
        "meta_eccentricity": 8.682e-05,
        "meta_inclination": 53.1601,
        "meta_ra_of_asc_node": 195.9852,
        "meta_arg_of_pericenter": 87.5415,
        "meta_mean_anomaly": 248.992,
        "meta_ephemeris_type": 0,
        "meta_classification_type": "U",
        "meta_norad_cat_id": 66624,
        "meta_element_set_no": 999,
        "meta_rev_at_epoch": 395,
        "meta_bstar": -0.030485716,
        "meta_mean_motion_dot": -0.02067261,
        "meta_mean_motion_ddot": 0,
        "tle_line1": "1 66624U 25271H   25344.91670139 -.02067261  00000+0 -30486-1 0  9992",
        "tle_line2": "2 66624  53.1601 195.9852 0000868  87.5415 248.9920 15.57895425  3955"
      },
      "geometry": {
        "type": "Point",
        "coordinates": [
          11.03062661553825,
          4.710350969374651
        ]
      }
    }
  ]
}